{
  "type": "FeatureCollection",
  "features": [
    {
      "type": "Feature",
      "properties": {
        "norad_id": 37600,
        "name": "FENGYUN 1C DEB",
        "group": "fengyun-1c-debris",
        "lat": -66.58922361589073,
        "lon": -52.87402213433175,
        "alt_km": 1178.8838063944168,
        "timestamp": "2025-12-17T23:38:07.143274+00:00",
        "meta_object_name": "FENGYUN 1C DEB",
        "meta_object_id": "1999-025EKU",
        "meta_epoch": "2025-12-16T06:29:34.368288",
        "meta_mean_motion": 13.82578556,
        "meta_eccentricity": 0.03567631,
        "meta_inclination": 98.9344,
        "meta_ra_of_asc_node": 146.801,
        "meta_arg_of_pericenter": 39.9927,
        "meta_mean_anomaly": 322.6928,
        "meta_ephemeris_type": 0,
        "meta_classification_type": "U",
        "meta_norad_cat_id": 37600,
        "meta_element_set_no": 999,
        "meta_rev_at_epoch": 88536,
        "meta_bstar": 0.001794855,
        "meta_mean_motion_dot": 3.134e-05,
        "meta_mean_motion_ddot": 0,
        "tle_line1": "1 37600U 99025EKU 25350.27053667  .00003134  00000+0  17949-2 0  9994",
        "tle_line2": "2 37600  98.9344 146.8010 0356763  39.9927 322.6928 13.82578556885366"
      },
      "geometry": {
        "type": "Point",
        "coordinates": [
          -52.87402213433175,
          -66.58922361589073
        ]
      }
    },
    {
      "type": "Feature",
      "properties": {
        "norad_id": 37683,
        "name": "FENGYUN 1C DEB",
        "group": "fengyun-1c-debris",
        "lat": -19.061362540675564,
        "lon": -86.5541943384213,
        "alt_km": 1416.8243774563698,
        "timestamp": "2025-12-17T23:38:07.143285+00:00",
        "meta_object_name": "FENGYUN 1C DEB",
        "meta_object_id": "1999-025EKY",
        "meta_epoch": "2025-12-16T14:04:04.253376",
        "meta_mean_motion": 13.31921563,
        "meta_eccentricity": 0.05852836,
        "meta_inclination": 98.0024,
        "meta_ra_of_asc_node": 269.5626,
        "meta_arg_of_pericenter": 115.2366,
        "meta_mean_anomaly": 8.0049,
        "meta_ephemeris_type": 0,
        "meta_classification_type": "U",
        "meta_norad_cat_id": 37683,
        "meta_element_set_no": 999,
        "meta_rev_at_epoch": 29291,
        "meta_bstar": 0.0012826469,
        "meta_mean_motion_dot": 1.595e-05,
        "meta_mean_motion_ddot": 0,
        "tle_line1": "1 37683U 99025EKY 25350.58616034  .00001595  00000+0  12826-2 0  9990",
        "tle_line2": "2 37683  98.0024 269.5626 0585283 115.2366   8.0049 13.31921563292911"
      },
      "geometry": {
        "type": "Point",
        "coordinates": [
          -86.5541943384213,
          -19.061362540675564
        ]
      }
    },
    {
      "type": "Feature",
      "properties": {
        "norad_id": 37686,
        "name": "FENGYUN 1C DEB",
        "group": "fengyun-1c-debris",
        "lat": 71.13137775572771,
        "lon": -17.884730322453745,
        "alt_km": 900.7855378853565,
        "timestamp": "2025-12-17T23:38:07.143296+00:00",
        "meta_object_name": "FENGYUN 1C DEB",
        "meta_object_id": "1999-025ELB",
        "meta_epoch": "2025-12-15T20:02:19.291200",
        "meta_mean_motion": 13.35366399,
        "meta_eccentricity": 0.03959537,
        "meta_inclination": 99.0216,
        "meta_ra_of_asc_node": 7.9106,
        "meta_arg_of_pericenter": 34.5937,
        "meta_mean_anomaly": 145.9696,
        "meta_ephemeris_type": 0,
        "meta_classification_type": "U",
        "meta_norad_cat_id": 37686,
        "meta_element_set_no": 999,
        "meta_rev_at_epoch": 60668,
        "meta_bstar": 0.00056833835,
        "meta_mean_motion_dot": 4.14e-06,
        "meta_mean_motion_ddot": 0,
        "tle_line1": "1 37686U 99025ELB 25349.83494550  .00000414  00000+0  56834-3 0  9993",
        "tle_line2": "2 37686  99.0216   7.9106 0395953  34.5937 145.9696 13.35366399606681"
      },
      "geometry": {
        "type": "Point",
        "coordinates": [
          -17.884730322453745,
          71.13137775572771
        ]
      }
    },
    {
      "type": "Feature",
      "properties": {
        "norad_id": 37687,
        "name": "FENGYUN 1C DEB",
        "group": "fengyun-1c-debris",
        "lat": -17.099346114061927,
        "lon": 29.01816779266178,
        "alt_km": 705.66387813646,
        "timestamp": "2025-12-17T23:38:07.143306+00:00",
        "meta_object_name": "FENGYUN 1C DEB",
        "meta_object_id": "1999-025ELC",
        "meta_epoch": "2025-12-14T21:46:20.279424",
        "meta_mean_motion": 13.85346082,
        "meta_eccentricity": 0.03333739,
        "meta_inclination": 98.2067,
        "meta_ra_of_asc_node": 23.7727,
        "meta_arg_of_pericenter": 352.7982,
        "meta_mean_anomaly": 129.6123,
        "meta_ephemeris_type": 0,
        "meta_classification_type": "U",
        "meta_norad_cat_id": 37687,
        "meta_element_set_no": 999,
        "meta_rev_at_epoch": 83284,
        "meta_bstar": 0.0025058041,
        "meta_mean_motion_dot": 4.365e-05,
        "meta_mean_motion_ddot": 0,
        "tle_line1": "1 37687U 99025ELC 25348.90717916  .00004365  00000+0  25058-2 0  9997",
        "tle_line2": "2 37687  98.2067  23.7727 0333373 352.7982 129.6123 13.85346082832840"
      },
      "geometry": {
        "type": "Point",
        "coordinates": [
          29.01816779266178,
          -17.099346114061927
        ]
      }
    },
    {
      "type": "Feature",
      "properties": {
        "norad_id": 37689,
        "name": "FENGYUN 1C DEB",
        "group": "fengyun-1c-debris",
        "lat": 53.87506088002284,
        "lon": -134.37469938520857,
        "alt_km": 726.9809115135185,
        "timestamp": "2025-12-17T23:38:07.143316+00:00",
        "meta_object_name": "FENGYUN 1C DEB",
        "meta_object_id": "1999-025ELE",
        "meta_epoch": "2025-12-16T22:11:39.439392",
        "meta_mean_motion": 14.48718217,
        "meta_eccentricity": 0.00208957,
        "meta_inclination": 98.9198,
        "meta_ra_of_asc_node": 32.0803,
        "meta_arg_of_pericenter": 227.3129,
        "meta_mean_anomaly": 132.6303,
        "meta_ephemeris_type": 0,
        "meta_classification_type": "U",
        "meta_norad_cat_id": 37689,
        "meta_element_set_no": 999,
        "meta_rev_at_epoch": 57873,
        "meta_bstar": 0.0018942734,
        "meta_mean_motion_dot": 7.118e-05,
        "meta_mean_motion_ddot": 0,
        "tle_line1": "1 37689U 99025ELE 25350.92476203  .00007118  00000+0  18943-2 0  9999",
        "tle_line2": "2 37689  98.9198  32.0803 0020895 227.3129 132.6303 14.48718217578736"
      },
      "geometry": {
        "type": "Point",
        "coordinates": [
          -134.37469938520857,
          53.87506088002284
        ]
      }
    },
    {
      "type": "Feature",
      "properties": {
        "norad_id": 37691,
        "name": "FENGYUN 1C DEB",
        "group": "fengyun-1c-debris",
        "lat": 24.39997637472174,
        "lon": -108.12222058380567,
        "alt_km": 759.2246664064023,
        "timestamp": "2025-12-17T23:38:07.143326+00:00",
        "meta_object_name": "FENGYUN 1C DEB",
        "meta_object_id": "1999-025ELG",
        "meta_epoch": "2025-12-14T11:30:11.305728",
        "meta_mean_motion": 14.57709944,
        "meta_eccentricity": 0.02803779,
        "meta_inclination": 98.3722,
        "meta_ra_of_asc_node": 252.1766,
        "meta_arg_of_pericenter": 144.6494,
        "meta_mean_anomaly": 217.3656,
        "meta_ephemeris_type": 0,
        "meta_classification_type": "U",
        "meta_norad_cat_id": 37691,
        "meta_element_set_no": 999,
        "meta_rev_at_epoch": 85659,
        "meta_bstar": 0.0018167166,
        "meta_mean_motion_dot": 0.00014274,
        "meta_mean_motion_ddot": 0,
        "tle_line1": "1 37691U 99025ELG 25348.47929752  .00014274  00000+0  18167-2 0  9990",
        "tle_line2": "2 37691  98.3722 252.1766 0280377 144.6494 217.3656 14.57709944856590"
      },
      "geometry": {
        "type": "Point",
        "coordinates": [
          -108.12222058380567,
          24.39997637472174
        ]
      }
    },
    {
      "type": "Feature",
      "properties": {
        "norad_id": 37693,
        "name": "FENGYUN 1C DEB",
        "group": "fengyun-1c-debris",
        "lat": -65.82503706667345,
        "lon": 151.66175360475518,
        "alt_km": 923.9373028803684,
        "timestamp": "2025-12-17T23:38:07.143337+00:00",
        "meta_object_name": "FENGYUN 1C DEB",
        "meta_object_id": "1999-025ELJ",
        "meta_epoch": "2025-12-16T18:19:01.844256",
        "meta_mean_motion": 14.08494893,
        "meta_eccentricity": 0.00726586,
        "meta_inclination": 98.6941,
        "meta_ra_of_asc_node": 350.4139,
        "meta_arg_of_pericenter": 63.6223,
        "meta_mean_anomaly": 113.0699,
        "meta_ephemeris_type": 0,
        "meta_classification_type": "U",
        "meta_norad_cat_id": 37693,
        "meta_element_set_no": 999,
        "meta_rev_at_epoch": 62205,
        "meta_bstar": 0.00066899007,
        "meta_mean_motion_dot": 1.134e-05,
        "meta_mean_motion_ddot": 0,
        "tle_line1": "1 37693U 99025ELJ 25350.76321579  .00001134  00000+0  66899-3 0  9997",
        "tle_line2": "2 37693  98.6941 350.4139 0072658  63.6223 113.0699 14.08494893622056"
      },
      "geometry": {
        "type": "Point",
        "coordinates": [
          151.66175360475518,
          -65.82503706667345
        ]
      }
    }
  ]
}